LEMUR-2-DEMBITZ         
1 42842U 17042T   26068.47492167  .00020231  00000+0  76561-3 0  9991
2 42842  97.3807 250.9241 0006961  17.1421 343.0051 15.26947128473114
STARLINK-31942          
1 59899U 24100Q   26067.21830014 -.00000899  00000+0 -23153-4 0  9992
2 59899  42.9999 133.5544 0000992 280.9043  79.1696 15.27567948100929
